CALSPHERE 1             
1 00900U 64063C   21171.57504400  .00000216  00000-0  22162-3 0  9990
2 00900  90.1628  34.5132 0029117  33.4076  24.4856 13.73546888820987
CALSPHERE 2             
1 00902U 64063E   21171.39342142  .00000041  00000-0  47877-4 0  9992
2 00902  90.1748  37.3547 0020126 115.9365  59.0277 13.52696512610289
LCS 1                   
1 01361U 65034C   21171.41146440  .00000024  00000-0  19926-2 0  9990
2 01361  32.1357 184.8965 0011309  33.9145 326.2074  9.89299721 29713
TEMPSAT 1               
1 01512U 65065E   21171.09942213  .00000013  00000-0  94864-5 0  9993
2 01512  89.8938 222.0152 0068781 329.4900  58.8743 13.33435960717082
CALSPHERE 4A            
1 01520U 65065H   21171.37285062  .00000047  00000-0  73641-4 0  9991
2 01520  90.0141 130.0122 0068589 202.7843 328.6272 13.35844893719720
OPS 5712 (P/L 160)      
1 02826U 67053A   21171.48786491  .00000510  00000-0  14890-3 0  9999
2 02826  69.9286  57.3672 0005267 149.1574 210.9870 14.49547570800765
OPS 5712 (P/L 153)      
1 02874U 67053H   21171.39749542 -.00000022  00000-0  22321-4 0  9996
2 02874  69.9749  60.6181 0006012  23.7255 336.4127 13.96370530752762
SURCAL 150B             
1 02909U 67053J   21171.49445925  .00000742  00000-0  16009-3 0  9997
2 02909  69.9483  63.8873 0004285 200.5261 159.5708 14.62391480811172
RIGIDSPHERE 2 (LCS 4)   
1 05398U 71067E   21171.48820313  .00000167  00000-0  51948-4 0  9992
2 05398  87.6221 122.9186 0064941 137.4797 223.1456 14.34003086612612
COSMOS 2493 (SKRL-756 1)
1 39490U 13078A   21171.37532860  .00000243  00000-0  23322-4 0  9995
2 39490  82.4185 220.9633 0016476 213.4719 146.5459 14.88804656406140
COSMOS 2494 (SKRL-756 2)
1 39491U 13078B   21171.29043864  .00000269  00000-0  25082-4 0  9991
2 39491  82.4184 215.5945 0021672 192.9948 167.0716 14.90200635406396
